STARLINK-30144          
1 56835U 23079N   26068.46727537  .00020067  00000+0  74607-3 0  9992
2 56835  42.9924 104.9420 0000253 240.8019 119.2807 15.27165073152893
FLOCK 4G-2              
1 62661U 25009BE  26068.66207492  .00013752  00000+0  51068-3 0  9995
2 62661  97.4044 151.2221 0003181 329.2677  30.8376 15.27675260121321
