[{"OBJECT_NAME":"STARLINK-30144","OBJECT_ID":"2023-079N","EPOCH":"2026-03-09T11:12:52.591968","MEAN_MOTION":15.27165073,"ECCENTRICITY":2.537e-5,"INCLINATION":42.9924,"RA_OF_ASC_NODE":104.942,"ARG_OF_PERICENTER":240.8019,"MEAN_ANOMALY":119.2807,"EPHEMERIS_TYPE":0,"CLASSIFICATION_TYPE":"U","NORAD_CAT_ID":56835,"ELEMENT_SET_NO":999,"REV_AT_EPOCH":15289,"BSTAR":0.00074606889,"MEAN_MOTION_DOT":0.00020067,"MEAN_MOTION_DDOT":0},{"OBJECT_NAME":"FLOCK 4G-2","OBJECT_ID":"2025-009BE","EPOCH":"2026-03-09T15:53:23.273952","MEAN_MOTION":15.2767526,"ECCENTRICITY":0.00031811,"INCLINATION":97.4044,"RA_OF_ASC_NODE":151.2221,"ARG_OF_PERICENTER":329.2677,"MEAN_ANOMALY":30.8376,"EPHEMERIS_TYPE":0,"CLASSIFICATION_TYPE":"U","NORAD_CAT_ID":62661,"ELEMENT_SET_NO":999,"REV_AT_EPOCH":12132,"BSTAR":0.00051068481,"MEAN_MOTION_DOT":0.00013752,"MEAN_MOTION_DDOT":0}]
